{
  "type": "FeatureCollection",
  "features": [
    {
      "type": "Feature",
      "properties": {
        "norad_id": 45807,
        "name": "BEIDOU-3 G3 (C61)",
        "group": "gnss",
        "lat": 1.7348332004507974,
        "lon": 124.96379296083636,
        "alt_km": 35795.25496402141,
        "timestamp": "2025-12-21T18:54:58.740280+00:00",
        "meta_object_name": "BEIDOU-3 G3 (C61)",
        "meta_object_id": "2020-040A",
        "meta_epoch": "2025-12-21T13:52:43.971744",
        "meta_mean_motion": 1.00269819,
        "meta_eccentricity": 0.0006499,
        "meta_inclination": 2.0115,
        "meta_ra_of_asc_node": 66.6552,
        "meta_arg_of_pericenter": 309.2812,
        "meta_mean_anomaly": 33.2123,
        "meta_ephemeris_type": 0,
        "meta_classification_type": "U",
        "meta_norad_cat_id": 45807,
        "meta_element_set_no": 999,
        "meta_rev_at_epoch": 2028,
        "meta_bstar": 0,
        "meta_mean_motion_dot": -3.32e-06,
        "meta_mean_motion_ddot": 0,
        "tle_line1": "1 45807U 20040A   25355.57828671 -.00000332  00000+0  00000+0 0  9991",
        "tle_line2": "2 45807   2.0115  66.6552 0006499 309.2812  33.2123  1.00269819 20280"
      },
      "geometry": {
        "type": "Point",
        "coordinates": [
          124.96379296083636,
          1.7348332004507974
        ]
      }
    },
    {
      "type": "Feature",
      "properties": {
        "norad_id": 45854,
        "name": "GPS BIII-3  (PRN 23)",
        "group": "gnss",
        "lat": 30.576356507298673,
        "lon": 58.82855064364743,
        "alt_km": 20335.107357486464,
        "timestamp": "2025-12-21T18:54:58.740303+00:00",
        "meta_object_name": "GPS BIII-3  (PRN 23)",
        "meta_object_id": "2020-041A",
        "meta_epoch": "2025-12-20T05:44:36.632832",
        "meta_mean_motion": 2.00561934,
        "meta_eccentricity": 0.00606224,
        "meta_inclination": 56.5518,
        "meta_ra_of_asc_node": 35.8938,
        "meta_arg_of_pericenter": 203.675,
        "meta_mean_anomaly": 155.7759,
        "meta_ephemeris_type": 0,
        "meta_classification_type": "U",
        "meta_norad_cat_id": 45854,
        "meta_element_set_no": 999,
        "meta_rev_at_epoch": 4044,
        "meta_bstar": 0,
        "meta_mean_motion_dot": -5.8e-07,
        "meta_mean_motion_ddot": 0,
        "tle_line1": "1 45854U 20041A   25354.23931288 -.00000058  00000+0  00000+0 0  9990",
        "tle_line2": "2 45854  56.5518  35.8938 0060622 203.6750 155.7759  2.00561934 40444"
      },
      "geometry": {
        "type": "Point",
        "coordinates": [
          58.82855064364743,
          30.576356507298673
        ]
      }
    },
    {
      "type": "Feature",
      "properties": {
        "norad_id": 46114,
        "name": "GALAXY 30 (WAAS/PRN 135)",
        "group": "gnss",
        "lat": -0.04213953496611315,
        "lon": -110.64381582245264,
        "alt_km": 35777.62324527332,
        "timestamp": "2025-12-21T18:54:58.740321+00:00",
        "meta_object_name": "GALAXY 30 (WAAS/PRN 135)",
        "meta_object_id": "2020-056C",
        "meta_epoch": "2025-12-21T00:37:13.930752",
        "meta_mean_motion": 1.00273357,
        "meta_eccentricity": 0.00020294,
        "meta_inclination": 0.0178,
        "meta_ra_of_asc_node": 349.0054,
        "meta_arg_of_pericenter": 282.3653,
        "meta_mean_anomaly": 62.8096,
        "meta_ephemeris_type": 0,
        "meta_classification_type": "U",
        "meta_norad_cat_id": 46114,
        "meta_element_set_no": 999,
        "meta_rev_at_epoch": 1950,
        "meta_bstar": 0,
        "meta_mean_motion_dot": 6e-07,
        "meta_mean_motion_ddot": 0,
        "tle_line1": "1 46114U 20056C   25355.02585568  .00000060  00000+0  00000+0 0  9992",
        "tle_line2": "2 46114   0.0178 349.0054 0002029 282.3653  62.8096  1.00273357 19505"
      },
      "geometry": {
        "type": "Point",
        "coordinates": [
          -110.64381582245264,
          -0.04213953496611315
        ]
      }
    },
    {
      "type": "Feature",
      "properties": {
        "norad_id": 46805,
        "name": "COSMOS 2547 (705K)",
        "group": "gnss",
        "lat": 6.6788370648581115,
        "lon": 15.207360719755954,
        "alt_km": 19120.776159650013,
        "timestamp": "2025-12-21T18:54:58.740341+00:00",
        "meta_object_name": "COSMOS 2547 (705K)",
        "meta_object_id": "2020-075A",
        "meta_epoch": "2025-12-21T02:15:10.361952",
        "meta_mean_motion": 2.13100243,
        "meta_eccentricity": 0.0006113,
        "meta_inclination": 64.5966,
        "meta_ra_of_asc_node": 198.4175,
        "meta_arg_of_pericenter": 227.727,
        "meta_mean_anomaly": 132.2941,
        "meta_ephemeris_type": 0,
        "meta_classification_type": "U",
        "meta_norad_cat_id": 46805,
        "meta_element_set_no": 999,
        "meta_rev_at_epoch": 4011,
        "meta_bstar": 0,
        "meta_mean_motion_dot": 9.8e-07,
        "meta_mean_motion_ddot": 0,
        "tle_line1": "1 46805U 20075A   25355.09386993  .00000098  00000+0  00000+0 0  9999",
        "tle_line2": "2 46805  64.5966 198.4175 0006113 227.7270 132.2941  2.13100243 40118"
      },
      "geometry": {
        "type": "Point",
        "coordinates": [
          15.207360719755954,
          6.6788370648581115
        ]
      }
    },
    {
      "type": "Feature",
      "properties": {
        "norad_id": 46826,
        "name": "GPS BIII-4  (PRN 14)",
        "group": "gnss",
        "lat": 7.364641317962393,
        "lon": -136.62350305826521,
        "alt_km": 20348.015700817745,
        "timestamp": "2025-12-21T18:54:58.740359+00:00",
        "meta_object_name": "GPS BIII-4  (PRN 14)",
        "meta_object_id": "2020-078A",
        "meta_epoch": "2025-12-16T01:06:13.902336",
        "meta_mean_motion": 2.00566891,
        "meta_eccentricity": 0.0064755,
        "meta_inclination": 54.0145,
        "meta_ra_of_asc_node": 218.2068,
        "meta_arg_of_pericenter": 203.3828,
        "meta_mean_anomaly": 339.3936,
        "meta_ephemeris_type": 0,
        "meta_classification_type": "U",
        "meta_norad_cat_id": 46826,
        "meta_element_set_no": 999,
        "meta_rev_at_epoch": 3783,
        "meta_bstar": 0,
        "meta_mean_motion_dot": 6.7e-07,
        "meta_mean_motion_ddot": 0,
        "tle_line1": "1 46826U 20078A   25350.04599424  .00000067  00000+0  00000+0 0  9996",
        "tle_line2": "2 46826  54.0145 218.2068 0064755 203.3828 339.3936  2.00566891 37831"
      },
      "geometry": {
        "type": "Point",
        "coordinates": [
          -136.62350305826521,
          7.364641317962393
        ]
      }
    },
    {
      "type": "Feature",
      "properties": {
        "norad_id": 48859,
        "name": "GPS BIII-5  (PRN 11)",
        "group": "gnss",
        "lat": -11.247918400642723,
        "lon": 167.51034288771237,
        "alt_km": 20134.649326952014,
        "timestamp": "2025-12-21T18:54:58.740376+00:00",
        "meta_object_name": "GPS BIII-5  (PRN 11)",
        "meta_object_id": "2021-054A",
        "meta_epoch": "2025-12-08T04:14:32.423424",
        "meta_mean_motion": 2.00553627,
        "meta_eccentricity": 0.0024678,
        "meta_inclination": 55.2581,
        "meta_ra_of_asc_node": 340.1367,
        "meta_arg_of_pericenter": 233.3993,
        "meta_mean_anomaly": 212.8594,
        "meta_ephemeris_type": 0,
        "meta_classification_type": "U",
        "meta_norad_cat_id": 48859,
        "meta_element_set_no": 999,
        "meta_rev_at_epoch": 3292,
        "meta_bstar": 0,
        "meta_mean_motion_dot": -8.6e-07,
        "meta_mean_motion_ddot": 0,
        "tle_line1": "1 48859U 21054A   25342.17676416 -.00000086  00000+0  00000+0 0  9993",
        "tle_line2": "2 48859  55.2581 340.1367 0024678 233.3993 212.8594  2.00553627 32922"
      },
      "geometry": {
        "type": "Point",
        "coordinates": [
          167.51034288771237,
          -11.247918400642723
        ]
      }
    },
    {
      "type": "Feature",
      "properties": {
        "norad_id": 49336,
        "name": "QZS-1R (QZSS/PRN 196)",
        "group": "gnss",
        "lat": 34.48722681721402,
        "lon": 147.35327522053905,
        "alt_km": 38707.60639103707,
        "timestamp": "2025-12-21T18:54:58.740395+00:00",
        "meta_object_name": "QZS-1R (QZSS/PRN 196)",
        "meta_object_id": "2021-096A",
        "meta_epoch": "2025-12-21T13:52:43.838688",
        "meta_mean_motion": 1.00254729,
        "meta_eccentricity": 0.07569138,
        "meta_inclination": 37.0948,
        "meta_ra_of_asc_node": 82.2293,
        "meta_arg_of_pericenter": 271.4815,
        "meta_mean_anomaly": 79.0907,
        "meta_ephemeris_type": 0,
        "meta_classification_type": "U",
        "meta_norad_cat_id": 49336,
        "meta_element_set_no": 999,
        "meta_rev_at_epoch": 1522,
        "meta_bstar": 0,
        "meta_mean_motion_dot": -2.54e-06,
        "meta_mean_motion_ddot": 0,
        "tle_line1": "1 49336U 21096A   25355.57828517 -.00000254  00000+0  00000+0 0  9996",
        "tle_line2": "2 49336  37.0948  82.2293 0756913 271.4815  79.0907  1.00254729 15225"
      },
      "geometry": {
        "type": "Point",
        "coordinates": [
          147.35327522053905,
          34.48722681721402
        ]
      }
    }
  ]
}